NORAD_CAT_ID,OBJECT_NAME,OBJECT_TYPE,EPOCH,MEAN_MOTION,ECCENTRICITY,INCLINATION,RA_OF_ASC_NODE,ARG_OF_PERICENTER,MEAN_ANOMALY,BSTAR,MEAN_MOTION_DOT,MEAN_MOTION_DDOT,TLE_LINE0,TLE_LINE1,TLE_LINE2,SEMIMAJOR_AXIS,PERIOD,APOGEE,PERIGEE,DECAYED
52539.0,STARLINK-3757,PAYLOAD,2023-03-23 00:07:18,15.08847137,0.0001377,53.2167,309.4811,68.7368,291.3771,0.00012173,1.65e-05,0.0,0 STARLINK-3757,1 52539U 22051G   23082.00507281  .00001650  00000-0  12173-3 0  9991,2 52539  53.2167 309.4811 0001377  68.7368 291.3771 15.08847137 47995,6917.859,95.437,540.676,538.771,0.0
52539.0,STARLINK-3757,PAYLOAD,2023-03-23 20:47:19,15.08840295,0.0001063,53.2157,305.6151,121.9825,238.127,4.2828e-05,3.94e-06,0.0,0 STARLINK-3757,1 52539U 22051G   23082.86619553  .00000394  00000-0  42828-4 0  9996,2 52539  53.2157 305.6151 0001063 121.9825 238.1270 15.08840295 48195,6917.879,95.438,540.48,539.009,0.0
52539.0,STARLINK-3757,PAYLOAD,2023-03-23 22:22:42,15.08841136,0.0001035,53.2158,305.3186,67.0599,293.0502,0.00012862,1.76e-05,0.0,0 STARLINK-3757,1 52539U 22051G   23082.93243836  .00001760  00000-0  12862-3 0  9993,2 52539  53.2158 305.3186 0001035  67.0599 293.0502 15.08841136 48135,6917.877,95.437,540.458,539.026,0.0
52539.0,STARLINK-3757,PAYLOAD,2023-03-24 01:33:28,15.08848193,7.86e-05,53.215,304.7224,75.2868,284.8211,0.00041387,6.307e-05,0.0,0 STARLINK-3757,1 52539U 22051G   23083.06491612  .00006307  00000-0  41387-3 0  9991,2 52539  53.2150 304.7224 0000786  75.2868 284.8211 15.08848193 48220,6917.855,95.437,540.264,539.177,0.0
52539.0,STARLINK-3757,PAYLOAD,2023-03-24 22:13:28,15.08869957,0.000106,53.2142,300.8562,71.9356,288.1752,0.0013244,0.0002087,0.0,0 STARLINK-3757,1 52539U 22051G   23083.92602761  .00020870  00000-0  13244-2 0  9996,2 52539  53.2142 300.8562 0001060  71.9356 288.1752 15.08869957 48288,6917.789,95.436,540.387,538.921,0.0
52539.0,STARLINK-3757,PAYLOAD,2023-03-24 23:48:51,15.08874155,0.0001098,53.2146,300.5585,75.5365,284.5748,0.0013525,0.00021323,0.0,0 STARLINK-3757,1 52539U 22051G   23083.99226579  .00021323  00000-0  13525-2 0  9998,2 52539  53.2146 300.5585 0001098  75.5365 284.5748 15.08874155 48365,6917.776,95.435,540.401,538.881,0.0
52539.0,STARLINK-3757,PAYLOAD,2023-03-25 06:10:24,15.08850067,0.0001538,53.2142,299.3712,61.1502,298.9645,0.00017176,2.447e-05,0.0,0 STARLINK-3757,1 52539U 22051G   23084.25722750  .00002447  00000-0  17176-3 0  9993,2 52539  53.2142 299.3712 0001538  61.1502 298.9645 15.08850067 48407,6917.85,95.437,540.779,538.651,0.0
52539.0,STARLINK-3757,PAYLOAD,2023-03-25 20:28:54,15.08799902,0.0001041,53.2153,296.6924,96.3934,263.7176,-0.00077555,-0.00012596,0.0,0 STARLINK-3757,1 52539U 22051G   23084.85340616 -.00012596  00000-0 -77555-3 0  9991,2 52539  53.2153 296.6924 0001041  96.3934 263.7176 15.08799902 48490,6918.003,95.44,540.588,539.148,0.0
52539.0,STARLINK-3757,PAYLOAD,2023-03-26 20:19:42,15.08839927,8.96e-05,53.2164,292.2336,79.2168,280.8925,0.00097599,0.00015279,0.0,0 STARLINK-3757,1 52539U 22051G   23085.84701578  .00015279  00000-0  97599-3 0  9998,2 52539  53.2164 292.2336 0000896  79.2168 280.8925 15.08839927 48648,6917.881,95.438,540.365,539.126,0.0
52539.0,STARLINK-3757,PAYLOAD,2023-03-26 23:30:28,15.08858343,8.31e-05,53.2164,291.6385,85.3927,274.716,0.001564,0.00024703,0.0,0 STARLINK-3757,1 52539U 22051G   23085.97949385  .00024703  00000-0  15640-2 0  9990,2 52539  53.2164 291.6385 0000831  85.3927 274.7160 15.08858343 48663,6917.824,95.436,540.264,539.114,0.0
52539.0,STARLINK-3757,PAYLOAD,2023-03-27 20:10:28,15.08865725,9.61e-05,53.2171,287.7741,87.1244,272.9858,0.00045959,7.039e-05,0.0,0 STARLINK-3757,1 52539U 22051G   23086.84060289  .00007039  00000-0  45959-3 0  9994,2 52539  53.2171 287.7741 0000961  87.1244 272.9858 15.08865725 48799,6917.802,95.436,540.332,539.002,0.0
52539.0,STARLINK-3757,PAYLOAD,2023-03-27 23:21:14,15.0886904,9.37e-05,53.2163,287.178,85.8305,274.2794,0.00048222,7.401e-05,0.0,0 STARLINK-3757,1 52539U 22051G   23086.97307990  .00007401  00000-0  48222-3 0  9990,2 52539  53.2163 287.1780 0000937  85.8305 274.2794 15.08869040 48746,6917.792,95.436,540.305,539.008,0.0
52539.0,STARLINK-3757,PAYLOAD,2023-03-28 16:50:28,15.08845961,9.51e-05,53.217,283.9057,102.1765,257.9334,-7.5583e-05,-1.491e-05,0.0,0 STARLINK-3757,1 52539U 22051G   23087.70172062 -.00001491  00000-0 -75583-4 0  9998,2 52539  53.2170 283.9057 0000951 102.1765 257.9334 15.08845961 48928,6917.862,95.437,540.385,539.069,0.0
52539.0,STARLINK-3757,PAYLOAD,2023-03-28 20:01:14,15.08854886,8.94e-05,53.2161,283.3126,93.7222,266.3872,7.9903e-05,9.85e-06,0.0,0 STARLINK-3757,1 52539U 22051G   23087.83419759  .00000985  00000-0  79903-4 0  9994,2 52539  53.2161 283.3126 0000894  93.7222 266.3872 15.08854886 48879,6917.835,95.437,540.318,539.081,0.0
52539.0,STARLINK-3757,PAYLOAD,2023-03-29 11:55:06,15.08846442,0.0001011,53.2148,280.3405,100.8077,259.3029,9.2071e-05,1.178e-05,0.0,0 STARLINK-3757,1 52539U 22051G   23088.49659902  .00001178  00000-0  92071-4 0  9999,2 52539  53.2148 280.3405 0001011 100.8077 259.3029 15.08846442 48977,6917.861,95.437,540.425,539.026,0.0
52539.0,STARLINK-3757,PAYLOAD,2023-03-29 19:52:01,15.08842662,9.38e-05,53.216,278.8515,88.4764,271.6336,0.0001195,1.615e-05,0.0,0 STARLINK-3757,1 52539U 22051G   23088.82780045  .00001615  00000-0  11950-3 0  9991,2 52539  53.2160 278.8515 0000938  88.4764 271.6336 15.08842662 49098,6917.872,95.437,540.386,539.088,0.0
52539.0,STARLINK-3757,PAYLOAD,2023-03-30 11:45:53,15.088396,9.17e-05,53.2159,275.8789,95.3037,264.806,0.00015525,2.184e-05,0.0,0 STARLINK-3757,1 52539U 22051G   23089.49020481  .00002184  00000-0  15525-3 0  9990,2 52539  53.2159 275.8789 0000917  95.3037 264.8060 15.08839600 49190,6917.882,95.438,540.381,539.112,0.0
52539.0,STARLINK-3757,PAYLOAD,2023-03-30 18:07:26,15.08846774,9.29e-05,53.2164,274.6901,95.8289,264.2809,0.00019898,2.881e-05,0.0,0 STARLINK-3757,1 52539U 22051G   23089.75516253  .00002881  00000-0  19898-3 0  9997,2 52539  53.2164 274.6901 0000929  95.8289 264.2809 15.08846774 49168,6917.86,95.437,540.367,539.082,0.0
52539.0,STARLINK-3757,PAYLOAD,2023-03-31 05:15:07,15.08864456,9.06e-05,53.2155,272.6076,86.6706,273.4389,0.00063939,9.909e-05,0.0,0 STARLINK-3757,1 52539U 22051G   23090.21883472  .00009909  00000-0  63939-3 0  9993,2 52539  53.2155 272.6076 0000906  86.6706 273.4389 15.08864456 49304,6917.806,95.436,540.297,539.044,0.0
52539.0,STARLINK-3757,PAYLOAD,2023-04-01 05:05:53,15.08850908,0.0001216,53.2159,268.1483,87.9488,272.1643,-4.0673e-05,-9.35e-06,0.0,0 STARLINK-3757,1 52539U 22051G   23091.21242872 -.00000935  00000-0 -40673-4 0  9990,2 52539  53.2159 268.1483 0001216  87.9488 272.1643 15.08850908 49458,6917.847,95.437,540.553,538.871,0.0
52539.0,STARLINK-3757,PAYLOAD,2023-04-01 11:27:26,15.08810206,9.87e-05,53.2162,266.9576,114.1722,245.9373,-0.0012098,-0.00019474,0.0,0 STARLINK-3757,1 52539U 22051G   23091.47739553 -.00019474  00000-0 -12098-2 0  9991,2 52539  53.2162 266.9576 0000987 114.1722 245.9373 15.08810206 49498,6917.971,95.439,540.519,539.154,0.0
52539.0,STARLINK-3757,PAYLOAD,2023-04-01 17:49:00,15.08817876,0.0001469,53.2154,265.7689,96.2852,263.8307,-0.00024049,-4.111e-05,0.0,0 STARLINK-3757,1 52539U 22051G   23091.74236144 -.00004111  00000-0 -24049-3 0  9991,2 52539  53.2154 265.7689 0001469  96.2852 263.8307 15.08817876 49532,6917.948,95.439,540.829,538.797,0.0
52539.0,STARLINK-3757,PAYLOAD,2023-04-02 11:18:15,15.0884243,0.0001061,53.2155,262.4979,101.7285,258.3826,0.0016745,0.00026464,0.0,0 STARLINK-3757,1 52539U 22051G   23092.47101211  .00026464  00000-0  16745-2 0  9994,2 52539  53.2155 262.4979 0001061 101.7285 258.3826 15.08842430 49640,6917.873,95.437,540.472,539.004,0.0
52539.0,STARLINK-3757,PAYLOAD,2023-04-02 20:50:33,15.08866602,0.0001032,53.2152,260.7135,98.3007,261.8103,0.0016826,0.00026612,0.0,0 STARLINK-3757,1 52539U 22051G   23092.86844670  .00026612  00000-0  16826-2 0  9995,2 52539  53.2152 260.7135 0001032  98.3007 261.8103 15.08866602 49636,6917.799,95.436,540.378,538.95,0.0
52539.0,STARLINK-3757,PAYLOAD,2023-04-03 04:47:29,15.08854765,0.000139,53.2156,259.2282,61.3274,298.7858,0.0012447,0.00019585,0.0,0 STARLINK-3757,1 52539U 22051G   23093.19965078  .00019585  00000-0  12447-2 0  9994,2 52539  53.2156 259.2282 0001390  61.3274 298.7858 15.08854765 49755,6917.835,95.437,540.662,538.739,0.0
52539.0,STARLINK-3757,PAYLOAD,2023-04-03 11:09:02,15.08851468,0.0001663,53.215,258.0368,91.1906,268.9277,0.0011842,0.00018615,0.0,0 STARLINK-3757,1 52539U 22051G   23093.46461141  .00018615  00000-0  11842-2 0  9997,2 52539  53.2150 258.0368 0001663  91.1906 268.9277 15.08851468 49792,6917.845,95.437,540.861,538.56,0.0
52539.0,STARLINK-3757,PAYLOAD,2023-04-03 17:30:34,15.08853396,0.0001878,53.2155,256.8476,87.1566,272.9641,0.0013971,0.00022025,0.0,0 STARLINK-3757,1 52539U 22051G   23093.72957156  .00022025  00000-0  13971-2 0  9997,2 52539  53.2155 256.8476 0001878  87.1566 272.9641 15.08853396 49767,6917.839,95.437,541.004,538.405,0.0
52539.0,STARLINK-3757,PAYLOAD,2023-04-04 10:59:49,15.08849023,9.02e-05,53.2151,253.5757,71.9712,288.1378,0.00080615,0.00012568,0.0,0 STARLINK-3757,1 52539U 22051G   23094.45821135  .00012568  00000-0  80615-3 0  9996,2 52539  53.2151 253.5757 0000902  71.9712 288.1378 15.08849023 49948,6917.853,95.437,540.342,539.094,0.0
52539.0,STARLINK-3757,PAYLOAD,2023-04-04 20:32:08,15.08851352,0.0001515,53.2144,251.7905,87.5144,272.6021,0.00048131,7.383e-05,0.0,0 STARLINK-3757,1 52539U 22051G   23094.85564848  .00007383  00000-0  48131-3 0  9991,2 52539  53.2144 251.7905 0001515  87.5144 272.6021 15.08851352 49938,6917.846,95.437,540.759,538.663,0.0
52539.0,STARLINK-3757,PAYLOAD,2023-04-05 14:01:24,15.08806478,0.0002265,53.2149,248.5205,113.0141,247.109,-0.00035774,-5.972e-05,0.0,0 STARLINK-3757,1 52539U 22051G   23095.58430747 -.00005972  00000-0 -35774-3 0  9995,2 52539  53.2149 248.5205 0002265 113.0141 247.1090 15.08806478 50041,6917.983,95.44,541.415,538.281,0.0
